{"type": "FeatureCollection", "features": [ {"type": "Feature", "properties": {"norad_id": 66530, "name": "STARLINK-35961", "group": "last-30-days", "lat": 41.59988414821814, "lon": -171.52236852866963, "alt_km": 386.76704924958085, "timestamp": "2025-12-08T03:50:05.783704+00:00", "meta": {"OBJECT_NAME": "STARLINK-35961", "OBJECT_ID": "2025-265Q", "EPOCH": "2025-12-07T06:00:04.999968", "MEAN_MOTION": 15.62235563, "ECCENTRICITY": 0.0001485, "INCLINATION": 43.0006, "RA_OF_ASC_NODE": 86.1955, "ARG_OF_PERICENTER": 276.1955, "MEAN_ANOMALY": 110.6063, "EPHEMERIS_TYPE": 0, "CLASSIFICATION_TYPE": "U", "NORAD_CAT_ID": 66530, "ELEMENT_SET_NO": 999, "REV_AT_EPOCH": 411, "BSTAR": -0.024302545, "MEAN_MOTION_DOT": -0.01941845, "MEAN_MOTION_DDOT": 0}, "tle": {"line1": "1 66530U 25265Q   25341.25005787 -.01941845  00000+0 -24303-1 0  9995", "line2": "2 66530  43.0006  86.1955 0001485 276.1955 110.6063 15.62235563  4113"}}, "geometry": {"type": "Point", "coordinates": [-171.52236852866963, 41.59988414821814]}}, {"type": "Feature", "properties": {"norad_id": 66531, "name": "STARLINK-35960", "group": "last-30-days", "lat": 41.17703519011092, "lon": -169.0412660716113, "alt_km": 386.8516940669133, "timestamp": "2025-12-08T03:50:05.783714+00:00", "meta": {"OBJECT_NAME": "STARLINK-35960", "OBJECT_ID": "2025-265R", "EPOCH": "2025-12-07T06:00:04.999968", "MEAN_MOTION": 15.62252392, "ECCENTRICITY": 0.00014715, "INCLINATION": 43.0007, "RA_OF_ASC_NODE": 86.1902, "ARG_OF_PERICENTER": 274.747, "MEAN_ANOMALY": 113.956, "EPHEMERIS_TYPE": 0, "CLASSIFICATION_TYPE": "U", "NORAD_CAT_ID": 66531, "ELEMENT_SET_NO": 999, "REV_AT_EPOCH": 411, "BSTAR": -0.024468754, "MEAN_MOTION_DOT": -0.01954666, "MEAN_MOTION_DDOT": 0}, "tle": {"line1": "1 66531U 25265R   25341.25005787 -.01954666  00000+0 -24469-1 0  9994", "line2": "2 66531  43.0007  86.1902 0001471 274.7470 113.9560 15.62252392  4115"}}, "geometry": {"type": "Point", "coordinates": [-169.0412660716113, 41.17703519011092]}}, {"type": "Feature", "properties": {"norad_id": 66532, "name": "STARLINK-35914", "group": "last-30-days", "lat": 40.70029468217957, "lon": -166.59033211677465, "alt_km": 386.9480758186355, "timestamp": "2025-12-08T03:50:05.783726+00:00", "meta": {"OBJECT_NAME": "STARLINK-35914", "OBJECT_ID": "2025-265S", "EPOCH": "2025-12-07T06:00:04.999968", "MEAN_MOTION": 15.62249048, "ECCENTRICITY": 0.00014903, "INCLINATION": 43.0003, "RA_OF_ASC_NODE": 86.1855, "ARG_OF_PERICENTER": 277.4505, "MEAN_ANOMALY": 113.174, "EPHEMERIS_TYPE": 0, "CLASSIFICATION_TYPE": "U", "NORAD_CAT_ID": 66532, "ELEMENT_SET_NO": 999, "REV_AT_EPOCH": 411, "BSTAR": -0.024466534, "MEAN_MOTION_DOT": -0.01954297, "MEAN_MOTION_DDOT": 0}, "tle": {"line1": "1 66532U 25265S   25341.25005787 -.01954297  00000+0 -24467-1 0  9993", "line2": "2 66532  43.0003  86.1855 0001490 277.4505 113.1740 15.62249048  4115"}}, "geometry": {"type": "Point", "coordinates": [-166.59033211677465, 40.70029468217957]}}, {"type": "Feature", "properties": {"norad_id": 66533, "name": "STARLINK-35707", "group": "last-30-days", "lat": 40.17234300103092, "lon": -164.17529604708926, "alt_km": 387.07333820609983, "timestamp": "2025-12-08T03:50:05.783736+00:00", "meta": {"OBJECT_NAME": "STARLINK-35707", "OBJECT_ID": "2025-265T", "EPOCH": "2025-12-07T06:00:04.999968", "MEAN_MOTION": 15.62254848, "ECCENTRICITY": 0.00015309, "INCLINATION": 43.0001, "RA_OF_ASC_NODE": 86.181, "ARG_OF_PERICENTER": 279.7597, "MEAN_ANOMALY": 112.7759, "EPHEMERIS_TYPE": 0, "CLASSIFICATION_TYPE": "U", "NORAD_CAT_ID": 66533, "ELEMENT_SET_NO": 999, "REV_AT_EPOCH": 411, "BSTAR": -0.024532522, "MEAN_MOTION_DOT": -0.01959359, "MEAN_MOTION_DDOT": 0}, "tle": {"line1": "1 66533U 25265T   25341.25005787 -.01959359  00000+0 -24533-1 0  9992", "line2": "2 66533  43.0001  86.1810 0001530 279.7597 112.7759 15.62254848  4115"}}, "geometry": {"type": "Point", "coordinates": [-164.17529604708926, 40.17234300103092]}}, {"type": "Feature", "properties": {"norad_id": 66534, "name": "STARLINK-35976", "group": "last-30-days", "lat": 39.594298444121954, "lon": -161.79437164842443, "alt_km": 387.1579054658305, "timestamp": "2025-12-08T03:50:05.783746+00:00", "meta": {"OBJECT_NAME": "STARLINK-35976", "OBJECT_ID": "2025-265U", "EPOCH": "2025-12-07T06:00:04.999968", "MEAN_MOTION": 15.62253127, "ECCENTRICITY": 0.00015244, "INCLINATION": 43.0006, "RA_OF_ASC_NODE": 86.1766, "ARG_OF_PERICENTER": 280.7323, "MEAN_ANOMALY": 113.7224, "EPHEMERIS_TYPE": 0, "CLASSIFICATION_TYPE": "U", "NORAD_CAT_ID": 66534, "ELEMENT_SET_NO": 999, "REV_AT_EPOCH": 411, "BSTAR": -0.02451911, "MEAN_MOTION_DOT": -0.01958294, "MEAN_MOTION_DDOT": 0}, "tle": {"line1": "1 66534U 25265U   25341.25005787 -.01958294  00000+0 -24519-1 0  9994", "line2": "2 66534  43.0006  86.1766 0001524 280.7323 113.7224 15.62253127  4110"}}, "geometry": {"type": "Point", "coordinates": [-161.79437164842443, 39.594298444121954]}}, {"type": "Feature", "properties": {"norad_id": 66535, "name": "STARLINK-35514", "group": "last-30-days", "lat": 38.97143150811573, "lon": -159.46773801307685, "alt_km": 387.2661613828395, "timestamp": "2025-12-08T03:50:05.783758+00:00", "meta": {"OBJECT_NAME": "STARLINK-35514", "OBJECT_ID": "2025-265V", "EPOCH": "2025-12-07T06:00:04.999968", "MEAN_MOTION": 15.62255594, "ECCENTRICITY": 0.0001506, "INCLINATION": 43.0007, "RA_OF_ASC_NODE": 86.1716, "ARG_OF_PERICENTER": 280.0486, "MEAN_ANOMALY": 116.3244, "EPHEMERIS_TYPE": 0, "CLASSIFICATION_TYPE": "U", "NORAD_CAT_ID": 66535, "ELEMENT_SET_NO": 999, "REV_AT_EPOCH": 411, "BSTAR": -0.024591969, "MEAN_MOTION_DOT": -0.01963566, "MEAN_MOTION_DDOT": 0}, "tle": {"line1": "1 66535U 25265V   25341.25005787 -.01963566  00000+0 -24592-1 0  9994", "line2": "2 66535  43.0007  86.1716 0001506 280.0486 116.3244 15.62255594  4111"}}, "geometry": {"type": "Point", "coordinates": [-159.46773801307685, 38.97143150811573]}}, {"type": "Feature", "properties": {"norad_id": 66536, "name": "STARLINK-35640", "group": "last-30-days", "lat": 38.294819500088366, "lon": -157.1567060242357, "alt_km": 387.3188258584578, "timestamp": "2025-12-08T03:50:05.783768+00:00", "meta": {"OBJECT_NAME": "STARLINK-35640", "OBJECT_ID": "2025-265W", "EPOCH": "2025-12-07T06:00:04.999968", "MEAN_MOTION": 15.6225065, "ECCENTRICITY": 0.0001483, "INCLINATION": 43.0006, "RA_OF_ASC_NODE": 86.167, "ARG_OF_PERICENTER": 280.4226, "MEAN_ANOMALY": 117.8678, "EPHEMERIS_TYPE": 0, "CLASSIFICATION_TYPE": "U", "NORAD_CAT_ID": 66536, "ELEMENT_SET_NO": 999, "REV_AT_EPOCH": 409, "BSTAR": -0.024481809, "MEAN_MOTION_DOT": -0.01955474, "MEAN_MOTION_DDOT": 0}, "tle": {"line1": "1 66536U 25265W   25341.25005787 -.01955474  00000+0 -24482-1 0  9992", "line2": "2 66536  43.0006  86.1670 0001483 280.4226 117.8678 15.62250650  4092"}}, "geometry": {"type": "Point", "coordinates": [-157.1567060242357, 38.294819500088366]}}, {"type": "Feature", "properties": {"norad_id": 66537, "name": "STARLINK-35582", "group": "last-30-days", "lat": 37.578805504315135, "lon": -154.90472079713533, "alt_km": 387.4497705140184, "timestamp": "2025-12-08T03:50:05.783780+00:00", "meta": {"OBJECT_NAME": "STARLINK-35582", "OBJECT_ID": "2025-265X", "EPOCH": "2025-12-07T06:00:04.999968", "MEAN_MOTION": 15.6225237, "ECCENTRICITY": 0.00015262, "INCLINATION": 43.0009, "RA_OF_ASC_NODE": 86.1622, "ARG_OF_PERICENTER": 278.7539, "MEAN_ANOMALY": 121.4518, "EPHEMERIS_TYPE": 0, "CLASSIFICATION_TYPE": "U", "NORAD_CAT_ID": 66537, "ELEMENT_SET_NO": 999, "REV_AT_EPOCH": 411, "BSTAR": -0.024492469, "MEAN_MOTION_DOT": -0.01956371, "MEAN_MOTION_DDOT": 0}, "tle": {"line1": "1 66537U 25265X   25341.25005787 -.01956371  00000+0 -24492-1 0  9991", "line2": "2 66537  43.0009  86.1622 0001526 278.7539 121.4518 15.62252370  4116"}}, "geometry": {"type": "Point", "coordinates": [-154.90472079713533, 37.578805504315135]}}, {"type": "Feature", "properties": {"norad_id": 66538, "name": "STARLINK-35577", "group": "last-30-days", "lat": 36.82242276931522, "lon": -152.70280282936918, "alt_km": 387.5801159881048, "timestamp": "2025-12-08T03:50:05.783790+00:00", "meta": {"OBJECT_NAME": "STARLINK-35577", "OBJECT_ID": "2025-265Y", "EPOCH": "2025-12-07T06:00:04.999968", "MEAN_MOTION": 15.6225631, "ECCENTRICITY": 0.00015241, "INCLINATION": 43.0011, "RA_OF_ASC_NODE": 86.1568, "ARG_OF_PERICENTER": 279.4302, "MEAN_ANOMALY": 122.6902, "EPHEMERIS_TYPE": 0, "CLASSIFICATION_TYPE": "U", "NORAD_CAT_ID": 66538, "ELEMENT_SET_NO": 999, "REV_AT_EPOCH": 411, "BSTAR": -0.024551794, "MEAN_MOTION_DOT": -0.01960806, "MEAN_MOTION_DDOT": 0}, "tle": {"line1": "1 66538U 25265Y   25341.25005787 -.01960806  00000+0 -24552-1 0  9997", "line2": "2 66538  43.0011  86.1568 0001524 279.4302 122.6902 15.62256310  4111"}}, "geometry": {"type": "Point", "coordinates": [-152.70280282936918, 36.82242276931522]}}, {"type": "Feature", "properties": {"norad_id": 66539, "name": "STARLINK-35697", "group": "last-30-days", "lat": 36.024842824056044, "lon": -150.5427813691615, "alt_km": 387.6309867405853, "timestamp": "2025-12-08T03:50:05.783800+00:00", "meta": {"OBJECT_NAME": "STARLINK-35697", "OBJECT_ID": "2025-265Z", "EPOCH": "2025-12-07T06:00:04.999968", "MEAN_MOTION": 15.62254325, "ECCENTRICITY": 0.00014499, "INCLINATION": 43.0009, "RA_OF_ASC_NODE": 86.1517, "ARG_OF_PERICENTER": 277.2804, "MEAN_ANOMALY": 126.7607, "EPHEMERIS_TYPE": 0, "CLASSIFICATION_TYPE": "U", "NORAD_CAT_ID": 66539, "ELEMENT_SET_NO": 999, "REV_AT_EPOCH": 411, "BSTAR": -0.02454908, "MEAN_MOTION_DOT": -0.01960426, "MEAN_MOTION_DDOT": 0}, "tle": {"line1": "1 66539U 25265Z   25341.25005787 -.01960426  00000+0 -24549-1 0  9992", "line2": "2 66539  43.0009  86.1517 0001449 277.2804 126.7607 15.62254325  4113"}}, "geometry": {"type": "Point", "coordinates": [-150.5427813691615, 36.024842824056044]}}]}